IRIDIUM 57              
1 25273U 98019B   24299.85868051  .00001273  00000+0  43615-3 0  9997
2 25273  86.3959 243.3508 0002370  86.0276 274.1191 14.35510135391373
IRIDIUM 63              
1 25286U 98021B   24299.76036150  .00001094  00000+0  36910-3 0  9992
2 25286  86.4044 180.3813 0002020  77.8931 282.2492 14.36120133390469
IRIDIUM 69              
1 25319U 98026A   24299.79030443  .00001636  00000+0  50916-3 0  9990
2 25319  86.4044 194.3417 0004576  78.7094 281.4619 14.40433417389556
IRIDIUM 71              
1 25320U 98026B   24299.76302388  .00001189  00000+0  36617-3 0  9994
2 25320  86.4042 189.0948 0003791 110.9509 249.2097 14.40696694390084
IRIDIUM 73              
1 25344U 98032C   24299.86687538  .00001522  00000+0  37983-3 0  9999
2 25344  86.4422 146.3011 0002736  80.7461 279.4054 14.51033101396879
IRIDIUM 82              
1 25467U 98051A   24299.81103642  .00029150  00000+0  12372-2 0  9991
2 25467  86.3751 223.4915 0117623  97.3785 264.0841 15.16771174388241
